DONGPO 02               
1 53452U 22098J   26164.87251637  .00109849  00000+0  76580-3 0  9997
2 53452  97.5515 295.7754 0001992 283.4921  76.6121 15.74007179214272
DONGPO 01               
1 53453U 22098K   26164.92224734  .00098594  00000+0  75215-3 0  9990
2 53453  97.5583 296.3640 0001709 238.9585 121.1510 15.71914268214244
STARLINK-4400           
1 53468U 22099D   26164.92194278 -.00000531  00000+0 -32838-4 0  9997
2 53468  97.3617 284.0989 0001217 147.4339 212.6964 15.05656462210455
STARLINK-4621           
1 53676U 22105AE  26164.92471507 -.00001818  00000+0 -12201-3 0  9999
2 53676  97.3634  44.1154 0002241  93.1732 266.9752 15.05661427207715
SHERPA-LTC2             
1 53754U 22107BG  26164.51410942  .00006659  00000+0  33839-3 0  9995
2 53754  53.2355 235.8792 0394206 215.7415 141.6583 14.69675971202001
CENTISPACE-1 S3         
1 53757U 22108A   26164.92445036  .00000456  00000+0  12985-3 0  9994
2 53757  53.5333  68.7506 0009150 346.1245  13.9477 14.61249038201050
CENTISPACE-1 S4         
1 53758U 22108B   26164.91025833  .00000641  00000+0  16471-3 0  9993
2 53758  53.5309  66.3426 0008371 333.8235  26.2317 14.61929171201081
BLUEWALKER-3            
1 53807U 22111AL  26164.93114547  .00006202  00000+0  17239-3 0  9997
2 53807  53.2302  49.2578 0006570 151.2324 208.9045 15.38236156209707
YUNHAI-1 03             
1 53877U 22115A   26164.97493169  .00000278  00000+0  11818-3 0  9996
2 53877  98.5531 163.1628 0005885  63.3840 296.7946 14.32715995195059
CENTISPACE-1 S5         
1 54020U 22126A   26164.87248218  .00000567  00000+0  14641-3 0  9999
2 54020  54.9980 226.2251 0014503  66.2977 293.9538 14.63010310196552
CENTISPACE-1 S6         
1 54021U 22126B   26164.93237202  .00000379  00000+0  11158-3 0  9999
2 54021  54.9983 227.8355 0016354  66.3955 293.8754 14.62288156196521
OTB-3-GAZELLE           
1 54023U 22127A   26164.93876514  .00000139  00000+0  54944-4 0  9992
2 54023  98.3943 156.6925 0012738 193.2206 166.8652 14.42673457193897
ASO-S                   
1 54029U 22129A   26164.94622368  .00000202  00000+0  60964-4 0  9997
2 54029  98.2747 170.0731 0015735 101.7500 258.5462 14.52060404194959
HJ-2E                   
1 54035U 22132A   26164.93261642  .00008241  00000+0  35885-3 0  9995
2 54035  97.3791 169.3675 0020952  26.3844 333.8455 15.22271824203928
COSMOS 2561             
1 54109U 22137A   26164.87308693  .00014071  00000+0  23788-3 0  9990
2 54109  96.9185 223.9980 0011039  47.1633 313.0546 15.51625651205837
GONETS-M 23             
1 54150U 22139A   26164.96239307  .00000041  00000+0  22297-3 0  9999
2 54150  82.5073 350.2989 0020782 227.0045 132.9293 12.42890725165244
GONETS-M 24             
1 54151U 22139B   26164.93548890  .00000033  00000+0  16453-3 0  9995
2 54151  82.4989 349.3776 0015900 237.5679 122.3863 12.42891324165240
GONETS-M 25             
1 54152U 22139C   26164.92187028  .00000033  00000+0  16580-3 0  9998
2 54152  82.5048 350.0707 0019830 236.2833 123.6356 12.42889947165244
SKIF-D                  
1 54153U 22139D   26164.25956708  .00000002  00000+0  00000+0 0  9996
2 54153  89.9514  96.6688 0007379 200.9098 159.1029  5.00428502 63915
MATS                    
1 54227U 22147A   26164.92477863  .00003029  00000+0  21562-3 0  9993
2 54227  97.6821 166.5357 0011634 202.1154 157.9572 15.05339342197275
JILIN-1 GAOFEN 03D54    
1 54254U 22155D   26164.95544844  .00346169  50336-4  82774-3 0  9998
2 54254  97.6101 317.6380 0004959 265.0111  95.0599 15.96552713199782
EOS-6 (OCEANSAT-3)      
1 54361U 22158A   26164.98186507  .00000249  00000+0  80572-4 0  9990
2 54361  98.3538 263.2185 0001390  51.7965 308.3353 14.46998756187370
DONGPO 09               
1 54685U 22167D   26164.95793881  .00013035  00000+0  37084-3 0  9991
2 54685  97.6888 335.8209 0003482 123.2043 236.9535 15.36270256194956
DONGPO 08               
1 54686U 22167E   26164.93276117  .00011455  00000+0  35485-3 0  9995
2 54686  97.6852 332.9881 0008431 171.2019 188.9372 15.33587419194827
2022-167F               
1 54687U 22167F   26164.94132345  .00228598  21518-4  72000-3 0  9995
2 54687  97.6104 352.4601 0001181 221.1077 139.0107 15.91354365196314
DONGPO 10               
1 54689U 22167H   26164.94111954  .00011739  00000+0  35464-3 0  9998
2 54689  97.6932 334.9407 0006217 119.1812 241.0052 15.34394278194867
JILIN-1 GAOFEN 03D48    
1 54695U 22167P   26164.94044521  .00012497  00000+0  36820-3 0  9999
2 54695  97.6867 334.3168 0007539 124.4303 235.7654 15.35158450194893
STAR VIBE               
1 55009U 23001A   26164.92689781  .00015430  00000+0  35702-3 0  9996
2 55009  97.3178 229.3774 0007141 121.7519 238.4426 15.42535034191720
BRO-8                   
1 55011U 23001C   26164.94725937  .00034626  00000+0  64201-3 0  9999
2 55011  97.3222 230.0842 0006809 132.4412 227.7416 15.48874949191704
CONNECTA T1.2           
1 55012U 23001D   26164.75059713  .00041071  00000+0  71915-3 0  9993
2 55012  97.3281 235.3801 0006701 112.0905 248.1059 15.50472628192011
