OBJECT_NAME,OBJECT_ID,EPOCH,MEAN_MOTION,ECCENTRICITY,INCLINATION,RA_OF_ASC_NODE,ARG_OF_PERICENTER,MEAN_ANOMALY,EPHEMERIS_TYPE,CLASSIFICATION_TYPE,NORAD_CAT_ID,ELEMENT_SET_NO,REV_AT_EPOCH,BSTAR,MEAN_MOTION_DOT,MEAN_MOTION_DDOT
DONGPO 02,2022-098J,2026-06-13T20:56:25.414368,15.74007179,.00019924,97.5515,295.7754,283.4921,76.6121,0,U,53452,999,21427,.76580371E-3,.109849E-2,0
DONGPO 01,2022-098K,2026-06-13T22:08:02.170176,15.71914268,.00017095,97.5583,296.3640,238.9585,121.1510,0,U,53453,999,21424,.75214888E-3,.98594E-3,0
STARLINK-4400,2022-099D,2026-06-13T22:07:35.856192,15.05656462,.00012171,97.3617,284.0989,147.4339,212.6964,0,U,53468,999,21045,-.32837779E-4,-.531E-5,0
STARLINK-4621,2022-105AE,2026-06-13T22:11:35.382048,15.05661427,.00022418,97.3634,44.1154,93.1732,266.9752,0,U,53676,999,20771,-.12201363E-3,-.1818E-4,0
SHERPA-LTC2,2022-107BG,2026-06-13T12:20:19.053888,14.69675971,.03942065,53.2355,235.8792,215.7415,141.6583,0,U,53754,999,20200,.33839382E-3,.6659E-4,0
CENTISPACE-1 S3,2022-108A,2026-06-13T22:11:12.511104,14.61249038,.00091507,53.5333,68.7506,346.1245,13.9477,0,U,53757,999,20105,.12985031E-3,.456E-5,0
CENTISPACE-1 S4,2022-108B,2026-06-13T21:50:46.319712,14.61929171,.0008371,53.5309,66.3426,333.8235,26.2317,0,U,53758,999,20108,.16470996E-3,.641E-5,0
BLUEWALKER-3,2022-111AL,2026-06-13T22:20:50.968608,15.38236156,.00065703,53.2302,49.2578,151.2324,208.9045,0,U,53807,999,20970,.17238717E-3,.6202E-4,0
YUNHAI-1 03,2022-115A,2026-06-13T23:23:54.098016,14.32715995,.00058852,98.5531,163.1628,63.3840,296.7946,0,U,53877,999,19505,.11818011E-3,.278E-5,0
CENTISPACE-1 S5,2022-126A,2026-06-13T20:56:22.460352,14.63010310,.00145035,54.9980,226.2251,66.2977,293.9538,0,U,54020,999,19655,.14641145E-3,.567E-5,0
CENTISPACE-1 S6,2022-126B,2026-06-13T22:22:36.942528,14.62288156,.00163549,54.9983,227.8355,66.3955,293.8754,0,U,54021,999,19652,.111576E-3,.379E-5,0
OTB-3-GAZELLE,2022-127A,2026-06-13T22:31:49.308096,14.42673457,.00127387,98.3943,156.6925,193.2206,166.8652,0,U,54023,999,19389,.54943991E-4,.139E-5,0
ASO-S,2022-129A,2026-06-13T22:42:33.725952,14.52060404,.00157356,98.2747,170.0731,101.7500,258.5462,0,U,54029,999,19495,.60964279E-4,.202E-5,0
HJ-2E,2022-132A,2026-06-13T22:22:58.058688,15.22271824,.00209523,97.3791,169.3675,26.3844,333.8455,0,U,54035,999,20392,.35885338E-3,.8241E-4,0
COSMOS 2561,2022-137A,2026-06-13T20:57:14.710752,15.51625651,.0011039,96.9185,223.9980,47.1633,313.0546,0,U,54109,999,20583,.23788E-3,.14071E-3,0
GONETS-M 23,2022-139A,2026-06-13T23:05:50.761248,12.42890725,.00207829,82.5073,350.2989,227.0045,132.9293,0,U,54150,999,16524,.22296676E-3,.41E-6,0
GONETS-M 24,2022-139B,2026-06-13T22:27:06.240960,12.42891324,.00159009,82.4989,349.3776,237.5679,122.3863,0,U,54151,999,16524,.16453426E-3,.33E-6,0
GONETS-M 25,2022-139C,2026-06-13T22:07:29.592192,12.42889947,.00198306,82.5048,350.0707,236.2833,123.6356,0,U,54152,999,16524,.16580231E-3,.33E-6,0
SKIF-D,2022-139D,2026-06-13T06:13:46.595712,5.00428502,.00073798,89.9514,96.6688,200.9098,159.1029,0,U,54153,999,6391,0,.2E-7,0
MATS,2022-147A,2026-06-13T22:11:40.873632,15.05339342,.00116348,97.6821,166.5357,202.1154,157.9572,0,U,54227,999,19727,.21562241E-3,.3029E-4,0
JILIN-1 GAOFEN 03D54,2022-155D,2026-06-13T22:55:50.745216,15.96552713,.00049598,97.6101,317.6380,265.0111,95.0599,0,U,54254,999,19978,.82774305E-3,.346169E-2,.50335705E-4
EOS-6 (OCEANSAT-3),2022-158A,2026-06-13T23:33:53.142048,14.46998756,.00013904,98.3538,263.2185,51.7965,308.3353,0,U,54361,999,18737,.80572345E-4,.249E-5,0
DONGPO 09,2022-167D,2026-06-13T22:59:25.913184,15.36270256,.00034828,97.6888,335.8209,123.2043,236.9535,0,U,54685,999,19495,.37083557E-3,.13035E-3,0
DONGPO 08,2022-167E,2026-06-13T22:23:10.565088,15.33587419,.00084318,97.6852,332.9881,171.2019,188.9372,0,U,54686,999,19482,.35484585E-3,.11455E-3,0
2022-167F,2022-167F,2026-06-13T22:35:30.346080,15.91354365,.00011815,97.6104,352.4601,221.1077,139.0107,0,U,54687,999,19631,.72000237E-3,.228598E-2,.21517554E-4
DONGPO 10,2022-167H,2026-06-13T22:35:12.728256,15.34394278,.00062173,97.6932,334.9407,119.1812,241.0052,0,U,54689,999,19486,.35463526E-3,.11739E-3,0
JILIN-1 GAOFEN 03D48,2022-167P,2026-06-13T22:34:14.466144,15.35158450,.0007539,97.6867,334.3168,124.4303,235.7654,0,U,54695,999,19489,.36819851E-3,.12497E-3,0
STAR VIBE,2023-001A,2026-06-13T22:14:43.970784,15.42535034,.0007141,97.3178,229.3774,121.7519,238.4426,0,U,55009,999,19172,.35701744E-3,.1543E-3,0
BRO-8,2023-001C,2026-06-13T22:44:03.209568,15.48874949,.00068094,97.3222,230.0842,132.4412,227.7416,0,U,55011,999,19170,.64200924E-3,.34626E-3,0
CONNECTA T1.2,2023-001D,2026-06-13T18:00:51.592032,15.50472628,.00067012,97.3281,235.3801,112.0905,248.1059,0,U,55012,999,19201,.71914642E-3,.41071E-3,0
